{
    "links": {
        "self": "http://www.neowsapp.com/rest/v1/neo/3423023?api_key=iIulBulltgU6a56xZRHN4H3l9WmuAYTsLGpBGhQ2"
    },
    "id": "3423023",
    "neo_reference_id": "3423023",
    "name": "(2008 PE1)",
    "designation": "2008 PE1",
    "nasa_jpl_url": "http://ssd.jpl.nasa.gov/sbdb.cgi?sstr=3423023",
    "absolute_magnitude_h": 24.1,
    "estimated_diameter": {
        "kilometers": {
            "estimated_diameter_min": 0.040230458,
            "estimated_diameter_max": 0.0899580388
        },
        "meters": {
            "estimated_diameter_min": 40.2304579834,
            "estimated_diameter_max": 89.9580388169
        },
        "miles": {
            "estimated_diameter_min": 0.0249980399,
            "estimated_diameter_max": 0.0558973165
        },
        "feet": {
            "estimated_diameter_min": 131.9896957704,
            "estimated_diameter_max": 295.1379320721
        }
    },
    "is_potentially_hazardous_asteroid": false,
    "close_approach_data": [
        {
            "close_approach_date": "1957-06-07",
            "close_approach_date_full": "1957-Jun-07 03:23",
            "epoch_date_close_approach": -396650220000,
            "relative_velocity": {
                "kilometers_per_second": "19.8889329355",
                "kilometers_per_hour": "71600.1585678288",
                "miles_per_hour": "44489.5540834378"
            },
            "miss_distance": {
                "astronomical": "0.4873907539",
                "lunar": "189.5950032671",
                "kilometers": "72912618.641134193",
                "miles": "45305800.3657221434"
            },
            "orbiting_body": "Earth"
        },
        {
            "close_approach_date": "1976-09-13",
            "close_approach_date_full": "1976-Sep-13 11:59",
            "epoch_date_close_approach": 211463940000,
            "relative_velocity": {
                "kilometers_per_second": "17.4435700086",
                "kilometers_per_hour": "62796.8520309629",
                "miles_per_hour": "39019.5217522391"
            },
            "miss_distance": {
                "astronomical": "0.4094876887",
                "lunar": "159.2907109043",
                "kilometers": "61258486.020743069",
                "miles": "38064258.1501855922"
            },
            "orbiting_body": "Earth"
        },
        {
            "close_approach_date": "2008-07-24",
            "close_approach_date_full": "2008-Jul-24 14:00",
            "epoch_date_close_approach": 1216908000000,
            "relative_velocity": {
                "kilometers_per_second": "6.6401179261",
                "kilometers_per_hour": "23904.4245338444",
                "miles_per_hour": "14853.2797888213"
            },
            "miss_distance": {
                "astronomical": "0.0556572729",
                "lunar": "21.6506791581",
                "kilometers": "8326209.475848723",
                "miles": "5173666.6621814574"
            },
            "orbiting_body": "Earth"
        },
        {
            "close_approach_date": "2024-06-23",
            "close_approach_date_full": "2024-Jun-23 14:30",
            "epoch_date_close_approach": 1719153000000,
            "relative_velocity": {
                "kilometers_per_second": "12.6974874178",
                "kilometers_per_hour": "45710.9547041678",
                "miles_per_hour": "28403.0096049314"
            },
            "miss_distance": {
                "astronomical": "0.2425125716",
                "lunar": "94.3373903524",
                "kilometers": "36279364.159582492",
                "miles": "22542951.5582107096"
            },
            "orbiting_body": "Earth"
        },
        {
            "close_approach_date": "2107-06-21",
            "close_approach_date_full": "2107-Jun-21 08:06",
            "epoch_date_close_approach": 4338086760000,
            "relative_velocity": {
                "kilometers_per_second": "14.8123550306",
                "kilometers_per_hour": "53324.4781101899",
                "miles_per_hour": "33133.7569679677"
            },
            "miss_distance": {
                "astronomical": "0.3116638971",
                "lunar": "121.2372559719",
                "kilometers": "46624255.162059177",
                "miles": "28970968.7560315626"
            },
            "orbiting_body": "Earth"
        }
    ],
    "orbital_data": {
        "orbit_id": "14",
        "orbit_determination_date": "2017-04-06 09:03:09",
        "first_observation_date": "2008-08-01",
        "last_observation_date": "2008-09-24",
        "data_arc_in_days": 54,
        "observations_used": 45,
        "orbit_uncertainty": "6",
        "minimum_orbit_intersection": ".0529074",
        "jupiter_tisserand_invariant": "3.509",
        "epoch_osculation": "2459000.5",
        "eccentricity": ".5077221704318121",
        "semi_major_axis": "2.167712250793302",
        "inclination": "4.455153412631717",
        "ascending_node_longitude": "300.7544209331851",
        "orbital_period": "1165.737788869759",
        "perihelion_distance": "1.067116681948898",
        "perihelion_argument": "7.276594632800791",
        "aphelion_distance": "3.268307819637706",
        "perihelion_time": "2459341.097960928173",
        "mean_anomaly": "254.8174562883272",
        "mean_motion": ".3088173030309312",
        "equinox": "J2000",
        "orbit_class": {
            "orbit_class_type": "AMO",
            "orbit_class_description": "Near-Earth asteroid orbits similar to that of 1221 Amor",
            "orbit_class_range": "1.017 AU < q (perihelion) < 1.3 AU"
        }
    },
    "is_sentry_object": false
}